AL MUNTHER              
1 63240U 25052AG  26068.64540749  .00017933  00000+0  65015-3 0  9992
2 63240  97.4001 323.9152 0008027 130.7043 229.4895 15.28381521 54798
STARLINK-34119          
1 63895U 25095F   26068.28896011  .00033204  00000+0  12114-2 0  9991
2 63895  42.9992 178.7369 0000511 222.3081 137.7731 15.27561474 47725
